OBJECT_NAME,OBJECT_ID,EPOCH,MEAN_MOTION,ECCENTRICITY,INCLINATION,RA_OF_ASC_NODE,ARG_OF_PERICENTER,MEAN_ANOMALY,EPHEMERIS_TYPE,CLASSIFICATION_TYPE,NORAD_CAT_ID,ELEMENT_SET_NO,REV_AT_EPOCH,BSTAR,MEAN_MOTION_DOT,MEAN_MOTION_DDOT
ONEWEB-0302,2021-075S,2026-06-25T23:51:57.315168,13.12444735,.0002064,87.8953,348.9151,98.3304,261.8058,0,U,49091,999,23570,.77664E-3,.292E-5,0
ONEWEB-0304,2021-075T,2026-06-25T23:26:47.013792,13.17650356,.0002018,87.9134,4.1212,87.7106,272.4256,0,U,49092,999,23473,.12771E-3,.62E-6,0
ONEWEB-0305,2021-075U,2026-06-25T23:17:04.055712,13.17650082,.0002211,87.9141,4.1077,83.5655,276.5728,0,U,49093,999,23476,.16507E-3,.77E-6,0
ONEWEB-0308,2021-075V,2026-06-25T23:42:11.295936,13.12444912,.0001817,87.8953,348.9086,92.3954,267.7383,0,U,49094,999,23571,.11622E-3,.55E-6,0
ONEWEB-0309,2021-075W,2026-06-25T23:21:55.867392,13.17649358,.0002173,87.9131,4.1146,100.7491,259.3886,0,U,49095,999,23473,.26766E-3,.117E-5,0
ONEWEB-0310,2021-075X,2026-06-26T00:04:09.722784,13.12442810,.0001817,87.8942,348.9263,92.8454,267.2883,0,U,49096,999,23634,.12222E-2,.452E-5,0
ONEWEB-0311,2021-075Y,2026-06-25T23:31:38.541216,13.17651039,.0002124,87.9135,4.1130,78.8906,281.2464,0,U,49097,999,23478,.43034E-4,.3E-6,0
ONEWEB-0312,2021-075Z,2026-06-26T01:42:51.202080,13.17650778,.0002173,87.9131,4.1053,88.6503,271.4878,0,U,49098,999,23477,-.82543E-3,-.308E-5,0
ONEWEB-0313,2021-075AA,2026-06-26T01:49:57.594720,13.17649473,.0001975,87.9129,4.1099,86.7160,273.4198,0,U,49099,999,23476,-.80135E-4,-.18E-6,0
ONEWEB-0314,2021-075AB,2026-06-25T12:16:08.010912,13.17649276,.0002245,87.9142,4.1960,88.0554,272.0834,0,U,49100,999,23466,-.27117E-4,.2E-7,0
ONEWEB-0315,2021-075AC,2026-06-25T23:25:06.458016,13.12443345,.0001931,87.8950,348.8965,80.9173,279.2174,0,U,49101,999,23632,-.12927E-2,-.452E-5,0
ONEWEB-0316,2021-075AD,2026-06-26T04:30:51.165216,13.18690141,.0001917,87.9171,333.6648,95.1174,265.0177,0,U,49102,999,23839,-.80619E-3,-.305E-5,0
ONEWEB-0317,2021-075AE,2026-06-25T23:29:59.339328,13.12445009,.0001878,87.8953,348.9199,115.1777,244.9546,0,U,49103,999,23634,-.53844E-3,-.181E-5,0
ONEWEB-0318,2021-075AF,2026-06-26T04:26:01.542048,13.18691413,.0001885,87.9175,333.6673,86.1778,273.9569,0,U,49104,999,23835,-.12625E-1,-.4962E-4,0
ONEWEB-0319,2021-075AG,2026-06-25T23:34:04.615104,13.17649874,.0002014,87.9133,4.1179,74.2091,285.9262,0,U,49105,999,23476,.63303E-4,.37E-6,0
ONEWEB-0323,2021-075AH,2026-06-26T04:32:30.036192,13.12440991,.0002135,87.8953,348.8590,78.4559,281.6809,0,U,49106,999,23573,-.10395E-2,-.361E-5,0
ONEWEB-0329,2021-075AJ,2026-06-26T01:35:34.691136,13.17649978,.0002003,87.9133,4.1018,87.6693,272.4667,0,U,49107,999,23475,.15066E-3,.71E-6,0
ONEWEB-0330,2021-075AK,2026-06-26T04:00:01.998720,13.19203132,.0002185,87.9134,4.0994,93.1746,308.3714,0,U,49108,999,482,-.11149E+0,-.44066E-3,0
ONEWEB-0292,2021-083A,2026-06-26T03:42:29.087712,13.13461338,.0001745,87.8960,318.4523,93.4629,266.6700,0,U,49186,999,23210,.32915E-2,.1215E-4,0
ONEWEB-0303,2021-083B,2026-06-26T04:21:10.413792,13.18686797,.0001895,87.9172,333.6666,89.8270,270.3079,0,U,49187,999,23116,-.73637E-5,.1E-6,0
ONEWEB-0306,2021-083C,2026-06-26T04:06:35.809920,13.18686785,.0001885,87.9175,333.6569,101.6066,258.5278,0,U,49188,999,23120,-.97059E-4,-.25E-6,0
ONEWEB-0307,2021-083D,2026-06-26T03:33:58.360032,13.13470100,.0001934,87.8960,318.4510,94.7020,265.4330,0,U,49189,999,23210,.83675E-3,.318E-5,0
ONEWEB-0320,2021-083E,2026-06-26T04:35:44.381760,13.18686082,.0001829,87.9168,333.6701,96.3075,263.8266,0,U,49190,999,23116,-.10317E-3,-.28E-6,0
ONEWEB-0321,2021-083F,2026-06-25T16:27:33.314400,13.20772573,.0002,87.9193,272.7412,108.0074,252.1277,0,U,49191,999,23795,.74565E-4,.43E-6,0
ONEWEB-0322,2021-083G,2026-06-26T03:27:53.218944,13.13471738,.0001538,87.8959,318.4521,109.4390,250.6905,0,U,49192,999,23209,.10055E-2,.38E-5,0
ONEWEB-0324,2021-083H,2026-06-26T03:56:54.037248,13.18685315,.0002029,87.9178,333.6638,97.0109,263.1254,0,U,49193,999,23118,.99976E-5,.17E-6,0
ONEWEB-0325,2021-083J,2026-06-26T04:01:45.341760,13.18686183,.0001775,87.9166,333.6705,93.2116,266.9219,0,U,49194,999,23119,.2051E-3,.94E-6,0
ONEWEB-0326,2021-083K,2026-06-26T04:23:49.012224,13.18685109,.0001887,87.9176,333.6660,86.0443,274.0904,0,U,49195,999,23118,-.87181E-4,-.21E-6,0
ONEWEB-0327,2021-083L,2026-06-26T04:23:24.802080,13.18684889,.0001745,87.9168,333.6697,81.9643,278.1687,0,U,49196,999,23120,-.10048E-3,-.27E-6,0
ONEWEB-0328,2021-083M,2026-06-26T03:13:14.817792,13.13470915,.0001989,87.8970,318.4279,98.8643,261.2711,0,U,49197,999,23207,.12788E-3,.59E-6,0
ONEWEB-0331,2021-083N,2026-06-26T04:13:52.749408,13.18685706,.0001958,87.9176,333.6612,84.8648,275.2708,0,U,49198,999,23119,.36387E-3,.156E-5,0
ONEWEB-0333,2021-083P,2026-06-26T03:05:55.870368,13.13470327,.0001821,87.8957,318.4544,97.1230,263.0107,0,U,49199,999,23208,-.48578E-3,-.165E-5,0
ONEWEB-0334,2021-083Q,2026-06-25T18:37:14.628000,13.20772730,.000169,87.9194,272.7334,123.9789,236.1505,0,U,49200,999,23792,-.17812E-3,-.59E-6,0
ONEWEB-0335,2021-083R,2026-06-25T21:29:31.409088,13.13471621,.0001936,87.8959,318.4981,92.9771,267.1579,0,U,49201,999,23206,-.42302E-3,-.142E-5,0
ONEWEB-0336,2021-083S,2026-06-25T22:37:48.237024,13.13471893,.000201,87.8957,318.4838,90.5594,269.5765,0,U,49202,999,23206,-.12447E-3,-.33E-6,0
ONEWEB-0337,2021-083T,2026-06-25T21:02:30.971040,13.13470137,.0002069,87.8956,318.5033,97.0032,263.1332,0,U,49203,999,23205,-.65195E-3,-.225E-5,0
ONEWEB-0338,2021-083U,2026-06-25T19:53:35.027232,13.20773723,.0001868,87.9186,272.7260,106.4224,253.7115,0,U,49204,999,23795,-.25034E-3,-.89E-6,0
ONEWEB-0339,2021-083V,2026-06-25T21:14:53.481408,13.13471042,.0001787,87.8958,318.4941,107.2284,252.9041,0,U,49205,999,23203,-.75847E-3,-.264E-5,0
ONEWEB-0340,2021-083W,2026-06-26T03:54:28.659744,13.18686980,.0001979,87.9178,333.6698,91.4552,268.6806,0,U,49206,999,23115,.36083E-3,.155E-5,0
ONEWEB-0341,2021-083X,2026-06-26T04:04:11.409600,13.18686161,.0002343,87.9167,333.6710,98.5533,261.5865,0,U,49207,999,23117,.2058E-4,.21E-6,0
ONEWEB-0342,2021-083Y,2026-06-25T12:46:57.382176,13.20772173,.0002019,87.9195,272.7738,103.3908,256.7450,0,U,49208,999,23788,.27711E-3,.126E-5,0
ONEWEB-0343,2021-083Z,2026-06-26T04:16:20.044128,13.18685761,.0001828,87.9169,333.6681,107.8746,252.2586,0,U,49209,999,23122,.2153E-3,.98E-6,0
ONEWEB-0344,2021-083AA,2026-06-25T21:07:34.148640,13.13468430,.0002208,87.8952,318.5085,100.2478,259.8900,0,U,49210,999,23203,-.84986E-3,-.298E-5,0
ONEWEB-0345,2021-083AB,2026-06-25T22:45:05.084064,13.13468021,.0002172,87.8968,318.4777,100.6693,259.4681,0,U,49211,999,23205,-.34939E-3,-.115E-5,0
ONEWEB-0346,2021-083AC,2026-06-25T22:43:41.378016,13.18686249,.0002115,87.9166,333.7140,76.7541,283.3827,0,U,49212,999,23113,-.12447E-3,-.36E-6,0
ONEWEB-0348,2021-083AD,2026-06-25T16:10:35.542272,13.20771563,.0002449,87.9200,272.7500,91.8477,268.2937,0,U,49213,999,23793,.35467E-4,.27E-6,0
ONEWEB-0350,2021-083AE,2026-06-25T21:22:12.012384,13.13470655,.0000949,87.8965,318.4942,120.1908,239.9315,0,U,49214,999,23207,-.76479E-3,-.267E-5,0
ONEWEB-0351,2021-083AF,2026-06-25T19:38:52.229184,13.20770568,.0002408,87.9198,272.7198,120.7435,239.3936,0,U,49215,999,23791,-.21754E-3,-.75E-6,0
ONEWEB-0352,2021-083AG,2026-06-25T22:30:28.024704,13.13470299,.0001859,87.8963,318.4902,111.3096,248.8232,0,U,49216,999,23217,-.63691E-4,-.11E-6,0
ONEWEB-0354,2021-083AH,2026-06-25T16:39:39.731904,13.20773305,.00024,87.9199,272.7433,96.0988,264.0419,0,U,49217,999,23793,-.48114E-4,-.7E-7,0
ONEWEB-0355,2021-083AJ,2026-06-25T21:22:25.026816,13.13470487,.0002019,87.8958,318.5004,103.7504,256.3850,0,U,49218,999,23204,-.75032E-3,-.261E-5,0
ONEWEB-0357,2021-083AK,2026-06-25T16:34:48.993312,13.20773219,.0002066,87.9196,272.7380,105.9058,254.2303,0,U,49219,999,23793,.83697E-4,.47E-6,0
ONEWEB-0332,2021-090A,2026-06-25T16:01:29.960832,13.14503258,.0001827,87.8964,288.0188,104.4767,255.6565,0,U,49279,999,22869,.61471E-3,.241E-5,0
ONEWEB-0347,2021-090B,2026-06-25T12:42:06.456096,13.20772411,.0001763,87.9196,272.7783,103.1697,256.9633,0,U,49280,999,23214,.25756E-3,.118E-5,0
ONEWEB-0349,2021-090C,2026-06-25T15:17:14.862048,13.20772609,.0002095,87.9199,272.7574,100.6970,259.4399,0,U,49281,999,23094,-.14769E-3,-.47E-6,0
ONEWEB-0353,2021-090D,2026-06-25T14:00:28.365696,13.14504247,.0001716,87.8970,288.0314,103.8826,256.2495,0,U,49282,999,22868,.64933E-4,.37E-6,0
ONEWEB-0356,2021-090E,2026-06-26T03:58:25.586688,13.20773796,.0001756,87.9195,272.6454,76.3866,283.7463,0,U,49283,999,23101,-.43002E-4,-.5E-7,0
ONEWEB-0358,2021-090F,2026-06-26T01:12:06.520608,13.20562385,.0002067,87.9195,272.6754,90.6311,269.5059,0,U,49284,999,23172,.85144E-1,.34657E-3,0
ONEWEB-0359,2021-090G,2026-06-26T04:37:13.154304,13.20773803,.0002284,87.9196,272.6402,95.7648,264.3745,0,U,49285,999,23172,.47657E-4,.32E-6,0
ONEWEB-0360,2021-090H,2026-06-26T04:22:41.418048,13.20770382,.0002118,87.9195,272.6483,101.5353,258.6018,0,U,49286,999,23103,-.50114E-5,.11E-6,0
ONEWEB-0361,2021-090J,2026-06-25T17:01:29.108352,13.20776110,.0002013,87.9192,272.7405,96.9683,263.1680,0,U,49287,999,23142,.17646E-2,.731E-5,0
ONEWEB-0362,2021-090K,2026-06-25T21:30:28.546272,13.19724481,.0002107,87.9176,303.2428,106.5051,253.6313,0,U,49288,999,22806,-.28634E-3,-.102E-5,0
ONEWEB-0363,2021-090L,2026-06-25T19:12:23.937120,13.20771780,.0001856,87.9197,272.7227,91.7649,268.3697,0,U,49289,999,23144,.14771E-3,.73E-6,0
ONEWEB-0364,2021-090M,2026-06-25T16:29:58.583040,13.20771737,.0002096,87.9196,272.7536,100.7789,259.3581,0,U,49290,999,23256,.18816E-3,.89E-6,0
ONEWEB-0365,2021-090N,2026-06-25T21:44:07.537920,13.19724510,.0001907,87.9186,303.2304,102.0294,258.1052,0,U,49291,999,22757,-.13622E-3,-.42E-6,0
ONEWEB-0366,2021-090P,2026-06-25T19:24:44.150112,13.14503842,.0001976,87.8962,287.9882,100.2724,259.8629,0,U,49292,999,22869,-.45054E-3,-.154E-5,0
ONEWEB-0367,2021-090Q,2026-06-25T19:11:11.976288,13.20772224,.0001923,87.9190,272.7251,102.1145,258.0204,0,U,49293,999,23096,.12546E-3,.64E-6,0
